[{"OBJECT_NAME":"YAOGAN-39 01C","OBJECT_ID":"2023-130E","EPOCH":"2026-03-10T00:21:12.086208","MEAN_MOTION":15.17357748,"ECCENTRICITY":0.00019778,"INCLINATION":34.9938,"RA_OF_ASC_NODE":50.1324,"ARG_OF_PERICENTER":224.3051,"MEAN_ANOMALY":135.7503,"EPHEMERIS_TYPE":0,"CLASSIFICATION_TYPE":"U","NORAD_CAT_ID":57731,"ELEMENT_SET_NO":999,"REV_AT_EPOCH":14039,"BSTAR":0.00036987259,"MEAN_MOTION_DOT":7.529e-5,"MEAN_MOTION_DDOT":0},{"OBJECT_NAME":"GUANGCHUAN 02","OBJECT_ID":"2024-221B","EPOCH":"2026-03-09T22:15:41.335200","MEAN_MOTION":15.16931464,"ECCENTRICITY":0.00066009,"INCLINATION":49.9417,"RA_OF_ASC_NODE":285.1157,"ARG_OF_PERICENTER":306.8917,"MEAN_ANOMALY":53.1429,"EPHEMERIS_TYPE":0,"CLASSIFICATION_TYPE":"U","NORAD_CAT_ID":62112,"ELEMENT_SET_NO":999,"REV_AT_EPOCH":7113,"BSTAR":0.00030203163,"MEAN_MOTION_DOT":5.737e-5,"MEAN_MOTION_DDOT":0}]
